[{"OBJECT_NAME":"FLORIPASAT-1","OBJECT_ID":"2019-093G","EPOCH":"2026-03-09T23:35:55.317696","MEAN_MOTION":15.02721611,"ECCENTRICITY":0.00131238,"INCLINATION":97.7908,"RA_OF_ASC_NODE":162.596,"ARG_OF_PERICENTER":52.6692,"MEAN_ANOMALY":307.5727,"EPHEMERIS_TYPE":0,"CLASSIFICATION_TYPE":"U","NORAD_CAT_ID":44885,"ELEMENT_SET_NO":999,"REV_AT_EPOCH":33774,"BSTAR":0.00066057159,"MEAN_MOTION_DOT":8.782e-5,"MEAN_MOTION_DDOT":0},{"OBJECT_NAME":"STARLINK-34693","OBJECT_ID":"2025-150D","EPOCH":"2026-03-09T13:35:23.471232","MEAN_MOTION":14.98331008,"ECCENTRICITY":0.0004041,"INCLINATION":70.0011,"RA_OF_ASC_NODE":134.9527,"ARG_OF_PERICENTER":272.5414,"MEAN_ANOMALY":87.5283,"EPHEMERIS_TYPE":0,"CLASSIFICATION_TYPE":"U","NORAD_CAT_ID":64793,"ELEMENT_SET_NO":999,"REV_AT_EPOCH":3649,"BSTAR":0.00037361,"MEAN_MOTION_DOT":4.368e-5,"MEAN_MOTION_DDOT":0}]
